[{"OBJECT_NAME":"LUR-1","OBJECT_ID":"2024-149AQ","EPOCH":"2026-03-09T19:05:45.284064","MEAN_MOTION":15.28658648,"ECCENTRICITY":0.00027765,"INCLINATION":97.379,"RA_OF_ASC_NODE":148.4255,"ARG_OF_PERICENTER":309.1571,"MEAN_ANOMALY":50.9421,"EPHEMERIS_TYPE":0,"CLASSIFICATION_TYPE":"U","NORAD_CAT_ID":60506,"ELEMENT_SET_NO":999,"REV_AT_EPOCH":8678,"BSTAR":0.0003298462,"MEAN_MOTION_DOT":9.121e-5,"MEAN_MOTION_DDOT":0},{"OBJECT_NAME":"STARLINK-35928","OBJECT_ID":"2025-265N","EPOCH":"2026-03-09T22:34:01.919136","MEAN_MOTION":15.27614787,"ECCENTRICITY":0.00012239,"INCLINATION":42.9998,"RA_OF_ASC_NODE":276.3538,"ARG_OF_PERICENTER":276.2574,"MEAN_ANOMALY":83.8138,"EPHEMERIS_TYPE":0,"CLASSIFICATION_TYPE":"U","NORAD_CAT_ID":66528,"ELEMENT_SET_NO":999,"REV_AT_EPOCH":1715,"BSTAR":0.0011516534,"MEAN_MOTION_DOT":0.00031598,"MEAN_MOTION_DDOT":0}]
